CCSDS_OMM_VERS = 2.0
CREATION_DATE  = 
ORIGINATOR     = 

OBJECT_NAME    = STARLINK-36639
OBJECT_ID      = 2026-022X
CENTER_NAME    = EARTH
REF_FRAME      = TEME
TIME_SYSTEM    = UTC
MEAN_ELEMENT_THEORY = SGP/SGP4

EPOCH          = 2026-02-18T14:00:03.000384
MEAN_MOTION    = 15.75243965
ECCENTRICITY   = .00013811
INCLINATION    = 97.2853
RA_OF_ASC_NODE = 82.6664
ARG_OF_PERICENTER = 96.7679
MEAN_ANOMALY   = 294.1309

EPHEMERIS_TYPE = 0
CLASSIFICATION_TYPE = U
NORAD_CAT_ID   = 67669
ELEMENT_SET_NO = 999
REV_AT_EPOCH   = 382
BSTAR          = -.44643143E-3
MEAN_MOTION_DOT = -.66358E-3
MEAN_MOTION_DDOT = 0

CCSDS_OMM_VERS = 2.0
CREATION_DATE  = 
ORIGINATOR     = 

OBJECT_NAME    = STARLINK-36596
OBJECT_ID      = 2026-022Y
CENTER_NAME    = EARTH
REF_FRAME      = TEME
TIME_SYSTEM    = UTC
MEAN_ELEMENT_THEORY = SGP/SGP4

EPOCH          = 2026-02-18T14:00:03.000384
MEAN_MOTION    = 15.75347305
ECCENTRICITY   = .00017302
INCLINATION    = 97.2853
RA_OF_ASC_NODE = 82.6701
ARG_OF_PERICENTER = 106.3002
MEAN_ANOMALY   = 294.5218

EPHEMERIS_TYPE = 0
CLASSIFICATION_TYPE = U
NORAD_CAT_ID   = 67670
ELEMENT_SET_NO = 999
REV_AT_EPOCH   = 382
BSTAR          = -.12522235E-2
MEAN_MOTION_DOT = -.184205E-2
MEAN_MOTION_DDOT = 0

CCSDS_OMM_VERS = 2.0
CREATION_DATE  = 
ORIGINATOR     = 

OBJECT_NAME    = STARLINK-36297
OBJECT_ID      = 2026-022Z
CENTER_NAME    = EARTH
REF_FRAME      = TEME
TIME_SYSTEM    = UTC
MEAN_ELEMENT_THEORY = SGP/SGP4

EPOCH          = 2026-02-18T14:00:03.000384
MEAN_MOTION    = 15.75253367
ECCENTRICITY   = .00012876
INCLINATION    = 97.2855
RA_OF_ASC_NODE = 82.6756
ARG_OF_PERICENTER = 88.1404
MEAN_ANOMALY   = 324.7606

EPHEMERIS_TYPE = 0
CLASSIFICATION_TYPE = U
NORAD_CAT_ID   = 67671
ELEMENT_SET_NO = 999
REV_AT_EPOCH   = 382
BSTAR          = -.47545442E-3
MEAN_MOTION_DOT = -.70656E-3
MEAN_MOTION_DDOT = 0

CCSDS_OMM_VERS = 2.0
CREATION_DATE  = 
ORIGINATOR     = 

OBJECT_NAME    = STARLINK-36616
OBJECT_ID      = 2026-022AA
CENTER_NAME    = EARTH
REF_FRAME      = TEME
TIME_SYSTEM    = UTC
MEAN_ELEMENT_THEORY = SGP/SGP4

EPOCH          = 2026-02-18T14:00:03.000384
MEAN_MOTION    = 15.75268872
ECCENTRICITY   = .00014198
INCLINATION    = 97.2854
RA_OF_ASC_NODE = 82.6724
ARG_OF_PERICENTER = 86.9396
MEAN_ANOMALY   = 317.9663

EPHEMERIS_TYPE = 0
CLASSIFICATION_TYPE = U
NORAD_CAT_ID   = 67672
ELEMENT_SET_NO = 999
REV_AT_EPOCH   = 382
BSTAR          = -.67511001E-3
MEAN_MOTION_DOT = -.1E-2
MEAN_MOTION_DDOT = 0

CCSDS_OMM_VERS = 2.0
CREATION_DATE  = 
ORIGINATOR     = 

OBJECT_NAME    = COSMOS 2600
OBJECT_ID      = 2026-023A
CENTER_NAME    = EARTH
REF_FRAME      = TEME
TIME_SYSTEM    = UTC
MEAN_ELEMENT_THEORY = SGP/SGP4

EPOCH          = 2026-02-18T13:28:33.710592
MEAN_MOTION    = 15.82838269
ECCENTRICITY   = .0001422
INCLINATION    = 96.6479
RA_OF_ASC_NODE = 125.8017
ARG_OF_PERICENTER = 52.5234
MEAN_ANOMALY   = 307.6166

EPHEMERIS_TYPE = 0
CLASSIFICATION_TYPE = U
NORAD_CAT_ID   = 67674
ELEMENT_SET_NO = 999
REV_AT_EPOCH   = 202
BSTAR          = .34048051E-3
MEAN_MOTION_DOT = .72041E-3
MEAN_MOTION_DDOT = 0

CCSDS_OMM_VERS = 2.0
CREATION_DATE  = 
ORIGINATOR     = 

OBJECT_NAME    = 2026-023B
OBJECT_ID      = 2026-023B
CENTER_NAME    = EARTH
REF_FRAME      = TEME
TIME_SYSTEM    = UTC
MEAN_ELEMENT_THEORY = SGP/SGP4

EPOCH          = 2026-02-18T14:20:15.995040
MEAN_MOTION    = 15.22496165
ECCENTRICITY   = .00179412
INCLINATION    = 96.6395
RA_OF_ASC_NODE = 124.7588
ARG_OF_PERICENTER = 198.2757
MEAN_ANOMALY   = 161.7839

EPHEMERIS_TYPE = 0
CLASSIFICATION_TYPE = U
NORAD_CAT_ID   = 67675
ELEMENT_SET_NO = 999
REV_AT_EPOCH   = 195
BSTAR          = .36928084E-3
MEAN_MOTION_DOT = .8536E-4
MEAN_MOTION_DDOT = 0

CCSDS_OMM_VERS = 2.0
CREATION_DATE  = 
ORIGINATOR     = 

OBJECT_NAME    = 2026-023C
OBJECT_ID      = 2026-023C
CENTER_NAME    = EARTH
REF_FRAME      = TEME
TIME_SYSTEM    = UTC
MEAN_ELEMENT_THEORY = SGP/SGP4

EPOCH          = 2026-02-18T14:19:32.421792
MEAN_MOTION    = 15.22574521
ECCENTRICITY   = .00191627
INCLINATION    = 96.6431
RA_OF_ASC_NODE = 124.7736
ARG_OF_PERICENTER = 187.9198
MEAN_ANOMALY   = 172.1741

EPHEMERIS_TYPE = 0
CLASSIFICATION_TYPE = U
NORAD_CAT_ID   = 67676
ELEMENT_SET_NO = 999
REV_AT_EPOCH   = 211
BSTAR          = .48704271E-3
MEAN_MOTION_DOT = .11314E-3
MEAN_MOTION_DDOT = 0

CCSDS_OMM_VERS = 2.0
CREATION_DATE  = 
ORIGINATOR     = 

OBJECT_NAME    = 2026-023D
OBJECT_ID      = 2026-023D
CENTER_NAME    = EARTH
REF_FRAME      = TEME
TIME_SYSTEM    = UTC
MEAN_ELEMENT_THEORY = SGP/SGP4

EPOCH          = 2026-02-18T14:20:58.096032
MEAN_MOTION    = 15.22433916
ECCENTRICITY   = .00192852
INCLINATION    = 96.6462
RA_OF_ASC_NODE = 124.7581
ARG_OF_PERICENTER = 193.1648
MEAN_ANOMALY   = 166.9090

EPHEMERIS_TYPE = 0
CLASSIFICATION_TYPE = U
NORAD_CAT_ID   = 67677
ELEMENT_SET_NO = 999
REV_AT_EPOCH   = 194
BSTAR          = .42614553E-3
MEAN_MOTION_DOT = .985E-4
MEAN_MOTION_DDOT = 0

CCSDS_OMM_VERS = 2.0
CREATION_DATE  = 
ORIGINATOR     = 

OBJECT_NAME    = 2026-023E
OBJECT_ID      = 2026-023E
CENTER_NAME    = EARTH
REF_FRAME      = TEME
TIME_SYSTEM    = UTC
MEAN_ELEMENT_THEORY = SGP/SGP4

EPOCH          = 2026-02-18T14:19:52.730976
MEAN_MOTION    = 15.22550695
ECCENTRICITY   = .00191105
INCLINATION    = 96.6355
RA_OF_ASC_NODE = 124.7570
ARG_OF_PERICENTER = 192.4819
MEAN_ANOMALY   = 167.5949

EPHEMERIS_TYPE = 0
CLASSIFICATION_TYPE = U
NORAD_CAT_ID   = 67678
ELEMENT_SET_NO = 999
REV_AT_EPOCH   = 194
BSTAR          = .5139444E-3
MEAN_MOTION_DOT = .11934E-3
MEAN_MOTION_DDOT = 0

CCSDS_OMM_VERS = 2.0
CREATION_DATE  = 
ORIGINATOR     = 

OBJECT_NAME    = 2026-023F
OBJECT_ID      = 2026-023F
CENTER_NAME    = EARTH
REF_FRAME      = TEME
TIME_SYSTEM    = UTC
MEAN_ELEMENT_THEORY = SGP/SGP4

EPOCH          = 2026-02-18T14:18:11.744064
MEAN_MOTION    = 15.22690323
ECCENTRICITY   = .00210528
INCLINATION    = 96.6362
RA_OF_ASC_NODE = 127.2544
ARG_OF_PERICENTER = 187.3155
MEAN_ANOMALY   = 172.7780

EPHEMERIS_TYPE = 0
CLASSIFICATION_TYPE = U
NORAD_CAT_ID   = 67679
ELEMENT_SET_NO = 999
REV_AT_EPOCH   = 193
BSTAR          = .57914928E-3
MEAN_MOTION_DOT = .13529E-3
MEAN_MOTION_DDOT = 0

CCSDS_OMM_VERS = 2.0
CREATION_DATE  = 
ORIGINATOR     = 

OBJECT_NAME    = 2026-023G
OBJECT_ID      = 2026-023G
CENTER_NAME    = EARTH
REF_FRAME      = TEME
TIME_SYSTEM    = UTC
MEAN_ELEMENT_THEORY = SGP/SGP4

EPOCH          = 2026-02-18T14:18:38.227392
MEAN_MOTION    = 15.22648510
ECCENTRICITY   = .00226415
INCLINATION    = 96.6290
RA_OF_ASC_NODE = 127.2502
ARG_OF_PERICENTER = 183.8165
MEAN_ANOMALY   = 176.2905

EPHEMERIS_TYPE = 0
CLASSIFICATION_TYPE = U
NORAD_CAT_ID   = 67680
ELEMENT_SET_NO = 999
REV_AT_EPOCH   = 193
BSTAR          = .48863839E-3
MEAN_MOTION_DOT = .11399E-3
MEAN_MOTION_DDOT = 0

CCSDS_OMM_VERS = 2.0
CREATION_DATE  = 
ORIGINATOR     = 

OBJECT_NAME    = 2026-023H
OBJECT_ID      = 2026-023H
CENTER_NAME    = EARTH
REF_FRAME      = TEME
TIME_SYSTEM    = UTC
MEAN_ELEMENT_THEORY = SGP/SGP4

EPOCH          = 2026-02-18T01:41:17.154816
MEAN_MOTION    = 15.22627375
ECCENTRICITY   = .00225878
INCLINATION    = 96.6435
RA_OF_ASC_NODE = 126.7896
ARG_OF_PERICENTER = 185.3318
MEAN_ANOMALY   = 174.7684

EPHEMERIS_TYPE = 0
CLASSIFICATION_TYPE = U
NORAD_CAT_ID   = 67681
ELEMENT_SET_NO = 999
REV_AT_EPOCH   = 185
BSTAR          = .3261934E-5
MEAN_MOTION_DOT = .18E-6
MEAN_MOTION_DDOT = 0

