STARLINK-36639          
1 67669U 26022X   26049.58336806 -.00066358  00000+0 -44643-3 0  9999
2 67669  97.2853  82.6664 0001381  96.7679 294.1309 15.75243965  3827
STARLINK-36596          
1 67670U 26022Y   26049.58336806 -.00184205  00000+0 -12522-2 0  9993
2 67670  97.2853  82.6701 0001730 106.3002 294.5218 15.75347305  3823
STARLINK-36297          
1 67671U 26022Z   26049.58336806 -.00070656  00000+0 -47545-3 0  9992
2 67671  97.2855  82.6756 0001287  88.1404 324.7606 15.75253367  3827
STARLINK-36616          
1 67672U 26022AA  26049.58336806 -.00100000  00000+0 -67511-3 0  9995
2 67672  97.2854  82.6724 0001419  86.9396 317.9663 15.75268872  3829
COSMOS 2600             
1 67674U 26023A   26049.56150128  .00072041  00000+0  34048-3 0  9997
2 67674  96.6479 125.8017 0001422  52.5234 307.6166 15.82838269  2022
2026-023B               
1 67675U 26023B   26049.59740735  .00008536  00000+0  36928-3 0  9997
2 67675  96.6395 124.7588 0017941 198.2757 161.7839 15.22496165  1958
2026-023C               
1 67676U 26023C   26049.59690303  .00011314  00000+0  48704-3 0  9996
2 67676  96.6431 124.7736 0019162 187.9198 172.1741 15.22574521  2116
2026-023D               
1 67677U 26023D   26049.59789463  .00009850  00000+0  42615-3 0  9990
2 67677  96.6462 124.7581 0019285 193.1648 166.9090 15.22433916  1944
2026-023E               
1 67678U 26023E   26049.59713809  .00011934  00000+0  51394-3 0  9992
2 67678  96.6355 124.7570 0019110 192.4819 167.5949 15.22550695  1947
2026-023F               
1 67679U 26023F   26049.59596926  .00013529  00000+0  57915-3 0  9999
2 67679  96.6362 127.2544 0021052 187.3155 172.7780 15.22690323  1932
2026-023G               
1 67680U 26023G   26049.59627578  .00011399  00000+0  48864-3 0  9995
2 67680  96.6290 127.2502 0022641 183.8165 176.2905 15.22648510  1934
2026-023H               
1 67681U 26023H   26049.07033744  .00000018  00000+0  32619-5 0  9994
2 67681  96.6435 126.7896 0022587 185.3318 174.7684 15.22627375  1856
